EUTELSAT 21B            
1 38992U 12062B   25243.17294455  .00000134  00000+0  00000+0 0  9991
2 38992   0.0711   9.2099 0002532 156.8228 257.4060  1.00272370 46911
EUTELSAT 70B            
1 39020U 12069A   25243.18265126 -.00000040  00000+0  00000+0 0  9992
2 39020   0.0671  10.9756 0003577 152.4186 312.4568  1.00272033 46600
EUTELSAT 117 WEST A     
1 39122U 13012A   25243.26055282 -.00000009  00000+0  00000+0 0  9998
2 39122   0.0625 284.4049 0002927 242.7765 149.5004  1.00270754 45521
EUTELSAT 7B             
1 39163U 13022A   25243.24141152  .00000052  00000+0  00000+0 0  9991
2 39163   0.0692 339.8064 0001573  76.4722  17.2879  1.00271690 45052
EXPRESS-AT1             
1 39612U 14010A   25243.24697565  .00000082  00000+0  00000+0 0  9995
2 39612   0.0235 245.9199 0001043 201.6160  37.0544  1.00272298 41915
EXPRESS-AT2             
1 39613U 14010B   25243.26775830 -.00000278  00000+0  00000+0 0  9998
2 39613   0.0140 163.7843 0000096 267.0091 145.1385  1.00270948 41598
EUTELSAT 3B             
1 39773U 14030A   25243.24063152  .00000024  00000+0  00000+0 0  9990
2 39773   0.0660   9.6208 0004270 147.9336 271.8286  1.00273076 41155
EUTELSAT 115 WEST B     
1 40425U 15010B   25243.26012377 -.00000021  00000+0  00000+0 0  9998
2 40425   0.0198  17.0730 0000390 229.3310  72.0218  1.00271436 38482
